{
  "type": "FeatureCollection",
  "features": [
    {
      "type": "Feature",
      "properties": {
        "norad_id": 41948,
        "name": "CARTOSAT-2D",
        "group": "resource",
        "lat": 63.115645425930644,
        "lon": -112.09290573374221,
        "alt_km": 498.2853713084405,
        "timestamp": "2025-12-21T14:40:47.568221+00:00",
        "meta_object_name": "CARTOSAT-2D",
        "meta_object_id": "2017-008A",
        "meta_epoch": "2025-12-21T06:16:06.847104",
        "meta_mean_motion": 15.1933257,
        "meta_eccentricity": 0.00053204,
        "meta_inclination": 97.4378,
        "meta_ra_of_asc_node": 52.6296,
        "meta_arg_of_pericenter": 137.1209,
        "meta_mean_anomaly": 223.0441,
        "meta_ephemeris_type": 0,
        "meta_classification_type": "U",
        "meta_norad_cat_id": 41948,
        "meta_element_set_no": 999,
        "meta_rev_at_epoch": 49056,
        "meta_bstar": 9.2937733e-05,
        "meta_mean_motion_dot": 1.896e-05,
        "meta_mean_motion_ddot": 0,
        "tle_line1": "1 41948U 17008A   25355.26119036  .00001896  00000+0  92938-4 0  9998",
        "tle_line2": "2 41948  97.4378  52.6296 0005320 137.1209 223.0441 15.19332570490565"
      },
      "geometry": {
        "type": "Point",
        "coordinates": [
          -112.09290573374221,
          63.115645425930644
        ]
      }
    },
    {
      "type": "Feature",
      "properties": {
        "norad_id": 42063,
        "name": "SENTINEL-2B",
        "group": "resource",
        "lat": 42.5259999847914,
        "lon": -104.11551190033681,
        "alt_km": 784.8693965013781,
        "timestamp": "2025-12-21T14:40:47.568231+00:00",
        "meta_object_name": "SENTINEL-2B",
        "meta_object_id": "2017-013A",
        "meta_epoch": "2025-12-21T07:19:46.161696",
        "meta_mean_motion": 14.30814126,
        "meta_eccentricity": 0.00012008,
        "meta_inclination": 98.5713,
        "meta_ra_of_asc_node": 67.6315,
        "meta_arg_of_pericenter": 93.4919,
        "meta_mean_anomaly": 266.6401,
        "meta_ephemeris_type": 0,
        "meta_classification_type": "U",
        "meta_norad_cat_id": 42063,
        "meta_element_set_no": 999,
        "meta_rev_at_epoch": 45920,
        "meta_bstar": 8.2403906e-05,
        "meta_mean_motion_dot": 1.72e-06,
        "meta_mean_motion_ddot": 0,
        "tle_line1": "1 42063U 17013A   25355.30539539  .00000172  00000+0  82404-4 0  9995",
        "tle_line2": "2 42063  98.5713  67.6315 0001200  93.4919 266.6401 14.30814126459201"
      },
      "geometry": {
        "type": "Point",
        "coordinates": [
          -104.11551190033681,
          42.5259999847914
        ]
      }
    },
    {
      "type": "Feature",
      "properties": {
        "norad_id": 42767,
        "name": "CARTOSAT-2E",
        "group": "resource",
        "lat": 24.457339944702248,
        "lon": 49.6686212928559,
        "alt_km": 509.2382560569713,
        "timestamp": "2025-12-21T14:40:47.568241+00:00",
        "meta_object_name": "CARTOSAT-2E",
        "meta_object_id": "2017-036C",
        "meta_epoch": "2025-12-21T06:40:04.733184",
        "meta_mean_motion": 15.19274114,
        "meta_eccentricity": 0.0002614,
        "meta_inclination": 97.4549,
        "meta_ra_of_asc_node": 52.7535,
        "meta_arg_of_pericenter": 194.7641,
        "meta_mean_anomaly": 165.3518,
        "meta_ephemeris_type": 0,
        "meta_classification_type": "U",
        "meta_norad_cat_id": 42767,
        "meta_element_set_no": 999,
        "meta_rev_at_epoch": 47113,
        "meta_bstar": 0.00011242108,
        "meta_mean_motion_dot": 2.303e-05,
        "meta_mean_motion_ddot": 0,
        "tle_line1": "1 42767U 17036C   25355.27783256  .00002303  00000+0  11242-3 0  9993",
        "tle_line2": "2 42767  97.4549  52.7535 0002614 194.7641 165.3518 15.19274114471138"
      },
      "geometry": {
        "type": "Point",
        "coordinates": [
          49.6686212928559,
          24.457339944702248
        ]
      }
    },
    {
      "type": "Feature",
      "properties": {
        "norad_id": 42920,
        "name": "FORMOSAT-5",
        "group": "resource",
        "lat": 57.12734565761771,
        "lon": 56.787752840833974,
        "alt_km": 723.4851285433524,
        "timestamp": "2025-12-21T14:40:47.568251+00:00",
        "meta_object_name": "FORMOSAT-5",
        "meta_object_id": "2017-049A",
        "meta_epoch": "2025-12-21T06:08:11.704992",
        "meta_mean_motion": 14.50765144,
        "meta_eccentricity": 0.00098277,
        "meta_inclination": 98.2443,
        "meta_ra_of_asc_node": 69.4037,
        "meta_arg_of_pericenter": 272.5252,
        "meta_mean_anomaly": 87.4818,
        "meta_ephemeris_type": 0,
        "meta_classification_type": "U",
        "meta_norad_cat_id": 42920,
        "meta_element_set_no": 999,
        "meta_rev_at_epoch": 44087,
        "meta_bstar": 5.2378204e-05,
        "meta_mean_motion_dot": 1.62e-06,
        "meta_mean_motion_ddot": 0,
        "tle_line1": "1 42920U 17049A   25355.25569103  .00000162  00000+0  52378-4 0  9996",
        "tle_line2": "2 42920  98.2443  69.4037 0009827 272.5252  87.4818 14.50765144440875"
      },
      "geometry": {
        "type": "Point",
        "coordinates": [
          56.787752840833974,
          57.12734565761771
        ]
      }
    },
    {
      "type": "Feature",
      "properties": {
        "norad_id": 42969,
        "name": "SENTINEL-5P",
        "group": "resource",
        "lat": 5.6226795225747255,
        "lon": 114.98926654578369,
        "alt_km": 829.056857423865,
        "timestamp": "2025-12-21T14:40:47.568262+00:00",
        "meta_object_name": "SENTINEL-5P",
        "meta_object_id": "2017-064A",
        "meta_epoch": "2025-12-21T05:24:13.216608",
        "meta_mean_motion": 14.19519434,
        "meta_eccentricity": 0.00010178,
        "meta_inclination": 98.7798,
        "meta_ra_of_asc_node": 293.7344,
        "meta_arg_of_pericenter": 90.828,
        "meta_mean_anomaly": 269.3012,
        "meta_ephemeris_type": 0,
        "meta_classification_type": "U",
        "meta_norad_cat_id": 42969,
        "meta_element_set_no": 999,
        "meta_rev_at_epoch": 42431,
        "meta_bstar": 4.7257332e-05,
        "meta_mean_motion_dot": 5.5e-07,
        "meta_mean_motion_ddot": 0,
        "tle_line1": "1 42969U 17064A   25355.22515297  .00000055  00000+0  47257-4 0  9999",
        "tle_line2": "2 42969  98.7798 293.7344 0001017  90.8280 269.3012 14.19519434424316"
      },
      "geometry": {
        "type": "Point",
        "coordinates": [
          114.98926654578369,
          5.6226795225747255
        ]
      }
    },
    {
      "type": "Feature",
      "properties": {
        "norad_id": 42987,
        "name": "SKYSAT-C11",
        "group": "resource",
        "lat": 52.049046707861,
        "lon": 123.71268361471994,
        "alt_km": 417.83134225243884,
        "timestamp": "2025-12-21T14:40:47.568272+00:00",
        "meta_object_name": "SKYSAT-C11",
        "meta_object_id": "2017-068A",
        "meta_epoch": "2025-12-20T21:23:06.896256",
        "meta_mean_motion": 15.4776797,
        "meta_eccentricity": 0.0001167,
        "meta_inclination": 97.4147,
        "meta_ra_of_asc_node": 132.5864,
        "meta_arg_of_pericenter": 98.9952,
        "meta_mean_anomaly": 261.1431,
        "meta_ephemeris_type": 0,
        "meta_classification_type": "U",
        "meta_norad_cat_id": 42987,
        "meta_element_set_no": 999,
        "meta_rev_at_epoch": 45557,
        "meta_bstar": 0.00031099,
        "meta_mean_motion_dot": 0.00016039,
        "meta_mean_motion_ddot": 0,
        "tle_line1": "1 42987U 17068A   25354.89105204  .00016039  00000+0  31099-3 0  9993",
        "tle_line2": "2 42987  97.4147 132.5864 0001167  98.9952 261.1431 15.47767970455577"
      },
      "geometry": {
        "type": "Point",
        "coordinates": [
          123.71268361471994,
          52.049046707861
        ]
      }
    },
    {
      "type": "Feature",
      "properties": {
        "norad_id": 42988,
        "name": "SKYSAT-C10",
        "group": "resource",
        "lat": -0.4497165050899245,
        "lon": 126.546724483802,
        "alt_km": 471.6102360626701,
        "timestamp": "2025-12-21T14:40:47.568282+00:00",
        "meta_object_name": "SKYSAT-C10",
        "meta_object_id": "2017-068B",
        "meta_epoch": "2025-12-20T21:26:27.282912",
        "meta_mean_motion": 15.32222184,
        "meta_eccentricity": 0.0005394,
        "meta_inclination": 97.4266,
        "meta_ra_of_asc_node": 125.7677,
        "meta_arg_of_pericenter": 81.245,
        "meta_mean_anomaly": 278.9402,
        "meta_ephemeris_type": 0,
        "meta_classification_type": "U",
        "meta_norad_cat_id": 42988,
        "meta_element_set_no": 999,
        "meta_rev_at_epoch": 45504,
        "meta_bstar": 0.00024439,
        "meta_mean_motion_dot": 7.528e-05,
        "meta_mean_motion_ddot": 0,
        "tle_line1": "1 42988U 17068B   25354.89337133  .00007528  00000+0  24439-3 0  9995",
        "tle_line2": "2 42988  97.4266 125.7677 0005394  81.2450 278.9402 15.32222184455043"
      },
      "geometry": {
        "type": "Point",
        "coordinates": [
          126.546724483802,
          -0.4497165050899245
        ]
      }
    }
  ]
}